CSS (TIANHE)            
1 48274U 21035A   23184.68831507  .00020492  00000+0  25290-3 0  9999
2 48274  41.4749  55.6689 0007582 207.2507 152.7934 15.59644354124419
